{
    "week": 291,
    "satellites": [
        {
            "Name": "BEIDOU-3 M28 (C50)",
            "Line1": "1 58654U 23207A   24307.57495695 -.00000004  00000+0  00000+0 0  9991",
            "Line2": "2 58654  55.2284  82.3517 0001273 220.4255 139.5430  1.86232124  5824",
            "SatelliteNumber": "58654",
            "Classification": "U",
            "LaunchYear": "23",
            "LaunchNumber": "207",
            "PieceOfLaunch": "A",
            "EpochYear": "24",
            "EpochDay": 307.57495695,
            "FirstDerivativeMeanMotion": -4e-08,
            "SecondDerivativeMeanMotion": "00000+0",
            "BSTAR": "00000+0",
            "SetNumber": "999",
            "Inclination": 55.2284,
            "RAAN": 82.3517,
            "Eccentricity": 0.0001273,
            "ArgumentOfPerigee": 220.4255,
            "MeanAnomaly": 139.543,
            "MeanMotion": 1.86232124,
            "RevolutionNumber": "582"
        },
        {
            "Name": "BEIDOU-3 M26 (C48)",
            "Line1": "1 58655U 23207B   24308.98507091  .00000004  00000+0  00000+0 0  9991",
            "Line2": "2 58655  55.2314  82.2894 0002806 222.1190 137.8389  1.86231603  5832",
            "SatelliteNumber": "58655",
            "Classification": "U",
            "LaunchYear": "23",
            "LaunchNumber": "207",
            "PieceOfLaunch": "B",
            "EpochYear": "24",
            "EpochDay": 308.98507091,
            "FirstDerivativeMeanMotion": 4e-08,
            "SecondDerivativeMeanMotion": "00000+0",
            "BSTAR": "00000+0",
            "SetNumber": "999",
            "Inclination": 55.2314,
            "RAAN": 82.2894,
            "Eccentricity": 0.0002806,
            "ArgumentOfPerigee": 222.119,
            "MeanAnomaly": 137.8389,
            "MeanMotion": 1.86231603,
            "RevolutionNumber": "583"
        }
    ]
}